{
  "norad_id": 51866,
  "name": "STARLINK-3553",
  "history": [
    {
      "epoch": "2026-03-28T20:09:09.051840Z",
      "apogee_km": 540.7204949231027,
      "perigee_km": 538.7812725915292,
      "latitude_deg": -5.956151812043366e-05,
      "longitude_deg": 154.46816945496758,
      "height_km": 540.6577602181453,
      "semi_major_axis_km": 6917.887883757316,
      "eccentricity": 0.00014016,
      "inclination_deg": 53.2178,
      "raan_deg": 283.0103,
      "arg_perigee_deg": 90.6605,
      "mean_anomaly_deg": 269.4547,
      "mean_motion_rev_day": 15.08837548
    },
    {
      "epoch": "2026-03-28T23:19:55.310880Z",
      "apogee_km": 540.7203118232746,
      "perigee_km": 538.7777694230672,
      "latitude_deg": -1.7284913354879306e-06,
      "longitude_deg": 106.05008830415971,
      "height_km": 540.6460311116598,
      "semi_major_axis_km": 6917.886040623171,
      "eccentricity": 0.0001404,
      "inclination_deg": 53.2177,
      "raan_deg": 282.4155,
      "arg_perigee_deg": 90.0775,
      "mean_anomaly_deg": 270.0378,
      "mean_motion_rev_day": 15.08838151
    }
  ]
}